start=new Date('2023-06-07T00:00:00.000Z').valueOf();
sats=[{"OBJECT_NAME":"STARLINK-1790","SEMIMAJOR_AXIS":"6925.331","FILE":"3926571","ELEMENT_SET_NO":"999","PERIAPSIS":"546.203","GP_ID":"233355575","COUNTRY_CODE":"US","MEAN_MOTION_DOT":"-0.00002044","MEAN_MOTION":"15.06405611","OBJECT_TYPE":"PAYLOAD","REV_AT_EPOCH":"14536","EPHEMERIS_TYPE":"0","INCLINATION":"53.0550","REF_FRAME":"TEME","MEAN_ELEMENT_THEORY":"SGP4","CLASSIFICATION_TYPE":"U","LAUNCH_DATE":"2020-10-18","TLE_LINE1":"1 46691U 20073X   23157.80262605 -.00002044  00000-0 -11836-3 0  9999","MEAN_MOTION_DDOT":"0.0000000000000","TIME_SYSTEM":"UTC","PERIOD":"95.592","BSTAR":"-0.00011836000000","SITE":"AFETR","ECCENTRICITY":"0.00014350","CENTER_NAME":"EARTH","EPOCH":"2023-06-06T19:15:46.890720","DECAY_DATE":null,"OBJECT_ID":"2020-073X","ARG_OF_PERICENTER":"90.7203","APOAPSIS":"548.190","TLE_LINE2":"2 46691  53.0550  81.7104 0001435  90.7203 269.3951 15.06405611145364","NORAD_CAT_ID":"46691","MEAN_ANOMALY":"269.3951","RCS_SIZE":"LARGE","RA_OF_ASC_NODE":"81.7104"},{"TIME_SYSTEM":"UTC","TLE_LINE1":"1 46692U 20073Y   23157.85469315 -.00003218  00000-0 -19724-3 0  9990","MEAN_MOTION_DDOT":"0.0000000000000","PERIOD":"95.592","CLASSIFICATION_TYPE":"U","LAUNCH_DATE":"2020-10-18","CENTER_NAME":"EARTH","EPOCH":"2023-06-06T20:30:45.488160","DECAY_DATE":null,"BSTAR":"-0.00019724000000","SITE":"AFETR","ECCENTRICITY":"0.00008870","TLE_LINE2":"2 46692  53.0543  96.4744 0000887  95.7678 264.3412 15.06396562145160","NORAD_CAT_ID":"46692","OBJECT_ID":"2020-073Y","APOAPSIS":"547.838","ARG_OF_PERICENTER":"95.7678","RA_OF_ASC_NODE":"96.4744","MEAN_ANOMALY":"264.3412","RCS_SIZE":"LARGE","GP_ID":"233355826","OBJECT_NAME":"STARLINK-1791","SEMIMAJOR_AXIS":"6925.359","PERIAPSIS":"546.610","FILE":"3926571","ELEMENT_SET_NO":"999","MEAN_MOTION":"15.06396562","OBJECT_TYPE":"PAYLOAD","MEAN_MOTION_DOT":"-0.00003218","COUNTRY_CODE":"US","EPHEMERIS_TYPE":"0","REV_AT_EPOCH":"14516","INCLINATION":"53.0543","MEAN_ELEMENT_THEORY":"SGP4","REF_FRAME":"TEME"},{"OBJECT_ID":"2020-073Z","APOAPSIS":"548.116","ARG_OF_PERICENTER":"92.6446","TLE_LINE2":"2 46693  53.0555  81.6900 0001293  92.6446 267.4691 15.06397879145362","NORAD_CAT_ID":"46693","MEAN_ANOMALY":"267.4691","RCS_SIZE":"LARGE","RA_OF_ASC_NODE":"81.6900","CLASSIFICATION_TYPE":"U","LAUNCH_DATE":"2020-10-18","TIME_SYSTEM":"UTC","MEAN_MOTION_DDOT":"0.0000000000000","TLE_LINE1":"1 46693U 20073Z   23157.80631845 -.00000668  00000-0 -25990-4 0  9994","PERIOD":"95.592","SITE":"AFETR","ECCENTRICITY":"0.00012930","BSTAR":"-0.00002599000000","CENTER_NAME":"EARTH","DECAY_DATE":null,"EPOCH":"2023-06-06T19:21:05.914080","EPHEMERIS_TYPE":"0","REV_AT_EPOCH":"14536","INCLINATION":"53.0555","REF_FRAME":"TEME","MEAN_ELEMENT_THEORY":"SGP4","SEMIMAJOR_AXIS":"6925.355","OBJECT_NAME":"STARLINK-1792","PERIAPSIS":"546.325","ELEMENT_SET_NO":"999","FILE":"3926571","GP_ID":"233354574","COUNTRY_CODE":"US","MEAN_MOTION_DOT":"-0.00000668","MEAN_MOTION":"15.06397879","OBJECT_TYPE":"PAYLOAD"},{"CLASSIFICATION_TYPE":"U","LAUNCH_DATE":"2020-10-18","TLE_LINE1":"1 46694U 20073AA  23157.83027479  .00015254  00000-0  10410-2 0  9994","MEAN_MOTION_DDOT":"0.0000000000000","TIME_SYSTEM":"UTC","PERIOD":"95.593","BSTAR":"0.00104100000000","SITE":"AFETR","ECCENTRICITY":"0.00008260","CENTER_NAME":"EARTH","EPOCH":"2023-06-06T19:55:35.741856","DECAY_DATE":null,"OBJECT_ID":"2020-073AA","ARG_OF_PERICENTER":"100.3917","APOAPSIS":"547.814","TLE_LINE2":"2 46694  53.0550  61.5884 0000826 100.3917 259.7165 15.06390583145654","NORAD_CAT_ID":"46694","MEAN_ANOMALY":"259.7165","RCS_SIZE":"LARGE","RA_OF_ASC_NODE":"61.5884","SEMIMAJOR_AXIS":"6925.377","OBJECT_NAME":"STARLINK-1793","ELEMENT_SET_NO":"999","FILE":"3926571","PERIAPSIS":"546.670","GP_ID":"233354824","COUNTRY_CODE":"US","MEAN_MOTION_DOT":"0.00015254","MEAN_MOTION":"15.06390583","OBJECT_TYPE":"PAYLOAD","REV_AT_EPOCH":"14565","EPHEMERIS_TYPE":"0","INCLINATION":"53.0550","REF_FRAME":"TEME","MEAN_ELEMENT_THEORY":"SGP4"},{"COUNTRY_CODE":"US","MEAN_MOTION_DOT":"0.00022884","MEAN_MOTION":"15.06457786","OBJECT_TYPE":"PAYLOAD","OBJECT_NAME":"STARLINK-1795","SEMIMAJOR_AXIS":"6925.171","FILE":"3926325","ELEMENT_SET_NO":"999","PERIAPSIS":"546.179","GP_ID":"233321994","REF_FRAME":"TEME","MEAN_ELEMENT_THEORY":"SGP4","REV_AT_EPOCH":"14555","EPHEMERIS_TYPE":"0","INCLINATION":"53.0545","ECCENTRICITY":"0.00012380","SITE":"AFETR","BSTAR":"0.00154780000000","CENTER_NAME":"EARTH","EPOCH":"2023-06-06T04:26:43.558368","DECAY_DATE":null,"CLASSIFICATION_TYPE":"U","LAUNCH_DATE":"2020-10-18","MEAN_MOTION_DDOT":"0.0000000000000","TLE_LINE1":"1 46696U 20073AC  23157.18522637  .00022884  00000-0  15478-2 0  9996","TIME_SYSTEM":"UTC","PERIOD":"95.588","MEAN_ANOMALY":"268.3809","RCS_SIZE":"LARGE","RA_OF_ASC_NODE":"64.4813","OBJECT_ID":"2020-073AC","ARG_OF_PERICENTER":"91.7321","APOAPSIS":"547.894","TLE_LINE2":"2 46696  53.0545  64.4813 0001238  91.7321 268.3809 15.06457786145553","NORAD_CAT_ID":"46696"},{"CLASSIFICATION_TYPE":"U","LAUNCH_DATE":"2020-10-18","TIME_SYSTEM":"UTC","TLE_LINE1":"1 46698U 20073AE  23157.77219291 -.00013522  00000-0 -89062-3 0  9994","MEAN_MOTION_DDOT":"0.0000000000000","PERIOD":"95.592","BSTAR":"-0.00089062000000","SITE":"AFETR","ECCENTRICITY":"0.00010820","CENTER_NAME":"EARTH","EPOCH":"2023-06-06T18:31:57.467424","DECAY_DATE":null,"OBJECT_ID":"2020-073AE","APOAPSIS":"547.965","ARG_OF_PERICENTER":"96.8036","NORAD_CAT_ID":"46698","TLE_LINE2":"2 46698  53.0541  81.8365 0001082  96.8036 263.3076 15.06399237145368","MEAN_ANOMALY":"263.3076","RCS_SIZE":"LARGE","RA_OF_ASC_NODE":"81.8365","SEMIMAJOR_AXIS":"6925.351","OBJECT_NAME":"STARLINK-1797","PERIAPSIS":"546.467","FILE":"3926571","ELEMENT_SET_NO":"999","GP_ID":"233355327","COUNTRY_CODE":"US","MEAN_MOTION_DOT":"-0.00013522","MEAN_MOTION":"15.06399237","OBJECT_TYPE":"PAYLOAD","EPHEMERIS_TYPE":"0","REV_AT_EPOCH":"14536","INCLINATION":"53.0541","REF_FRAME":"TEME","MEAN_ELEMENT_THEORY":"SGP4"},{"BSTAR":"-0.00003699100000","SITE":"AFETR","ECCENTRICITY":"0.00009750","DECAY_DATE":null,"EPOCH":"2023-06-06T18:38:37.981536","CENTER_NAME":"EARTH","LAUNCH_DATE":"2020-10-18","CLASSIFICATION_TYPE":"U","PERIOD":"95.592","MEAN_MOTION_DDOT":"0.0000000000000","TLE_LINE1":"1 46699U 20073AF  23157.77682849 -.00000832  00000-0 -36991-4 0  9992","TIME_SYSTEM":"UTC","RCS_SIZE":"LARGE","MEAN_ANOMALY":"281.3436","RA_OF_ASC_NODE":"81.8252","ARG_OF_PERICENTER":"78.7662","APOAPSIS":"547.894","OBJECT_ID":"2020-073AF","NORAD_CAT_ID":"46699","TLE_LINE2":"2 46699  53.0543  81.8252 0000975  78.7662 281.3436 15.06398237145369","COUNTRY_CODE":"US","MEAN_MOTION_DOT":"-0.00000832","OBJECT_TYPE":"PAYLOAD","MEAN_MOTION":"15.06398237","ELEMENT_SET_NO":"999","FILE":"3926571","PERIAPSIS":"546.544","SEMIMAJOR_AXIS":"6925.354","OBJECT_NAME":"STARLINK-1799","GP_ID":"233354075","REF_FRAME":"TEME","MEAN_ELEMENT_THEORY":"SGP4","INCLINATION":"53.0543","REV_AT_EPOCH":"14536","EPHEMERIS_TYPE":"0"},{"RCS_SIZE":"LARGE","MEAN_ANOMALY":"264.7249","RA_OF_ASC_NODE":"96.5094","ARG_OF_PERICENTER":"95.3886","APOAPSIS":"548.098","OBJECT_ID":"2020-073AG","TLE_LINE2":"2 46700  53.0547  96.5094 0001273  95.3886 264.7249 15.06399050145167","NORAD_CAT_ID":"46700","BSTAR":"0.00020451000000","SITE":"AFETR","ECCENTRICITY":"0.00012730","DECAY_DATE":null,"EPOCH":"2023-06-06T20:20:09.193632","CENTER_NAME":"EARTH","LAUNCH_DATE":"2020-10-18","CLASSIFICATION_TYPE":"U","PERIOD":"95.592","TLE_LINE1":"1 46700U 20073AG  23157.84732863  .00002766  00000-0  20451-3 0  9994","MEAN_MOTION_DDOT":"0.0000000000000","TIME_SYSTEM":"UTC","REF_FRAME":"TEME","MEAN_ELEMENT_THEORY":"SGP4","INCLINATION":"53.0547","REV_AT_EPOCH":"14516","EPHEMERIS_TYPE":"0","COUNTRY_CODE":"US","MEAN_MOTION_DOT":"0.00002766","OBJECT_TYPE":"PAYLOAD","MEAN_MOTION":"15.06399050","ELEMENT_SET_NO":"999","FILE":"3926571","PERIAPSIS":"546.335","OBJECT_NAME":"STARLINK-1800","SEMIMAJOR_AXIS":"6925.351","GP_ID":"233354325"},{"INCLINATION":"53.0550","EPHEMERIS_TYPE":"0","REV_AT_EPOCH":"14537","MEAN_ELEMENT_THEORY":"SGP4","REF_FRAME":"TEME","GP_ID":"233355576","PERIAPSIS":"546.227","ELEMENT_SET_NO":"999","FILE":"3926571","SEMIMAJOR_AXIS":"6925.320","OBJECT_NAME":"STARLINK-1801","OBJECT_TYPE":"PAYLOAD","MEAN_MOTION":"15.06409467","MEAN_MOTION_DOT":"0.00002440","COUNTRY_CODE":"US","TLE_LINE2":"2 46701  53.0550  81.6592 0001382  89.1571 270.9576 15.06409467145372","NORAD_CAT_ID":"46701","APOAPSIS":"548.142","ARG_OF_PERICENTER":"89.1571","OBJECT_ID":"2020-073AH","RA_OF_ASC_NODE":"81.6592","RCS_SIZE":"LARGE","MEAN_ANOMALY":"270.9576","PERIOD":"95.592","TIME_SYSTEM":"UTC","MEAN_MOTION_DDOT":"0.0000000000000","TLE_LINE1":"1 46701U 20073AH  23157.81368232  .00002440  00000-0  18258-3 0  9998","LAUNCH_DATE":"2020-10-18","CLASSIFICATION_TYPE":"U","DECAY_DATE":null,"EPOCH":"2023-06-06T19:31:42.152448","CENTER_NAME":"EARTH","ECCENTRICITY":"0.00013820","SITE":"AFETR","BSTAR":"0.00018258000000"},{"TLE_LINE2":"2 46702  53.0550  61.9017 0001329  91.8101 268.3040 15.06403334145640","NORAD_CAT_ID":"46702","OBJECT_ID":"2020-073AJ","ARG_OF_PERICENTER":"91.8101","APOAPSIS":"548.124","RA_OF_ASC_NODE":"61.9017","MEAN_ANOMALY":"268.3040","RCS_SIZE":"LARGE","MEAN_MOTION_DDOT":"0.0000000000000","TLE_LINE1":"1 46702U 20073AJ  23157.76023888 -.00002370  00000-0 -14024-3 0  9999","TIME_SYSTEM":"UTC","PERIOD":"95.592","CLASSIFICATION_TYPE":"U","LAUNCH_DATE":"2020-10-18","CENTER_NAME":"EARTH","DECAY_DATE":null,"EPOCH":"2023-06-06T18:14:44.639232","SITE":"AFETR","ECCENTRICITY":"0.00013290","BSTAR":"-0.00014024000000","REV_AT_EPOCH":"14564","EPHEMERIS_TYPE":"0","INCLINATION":"53.0550","MEAN_ELEMENT_THEORY":"SGP4","REF_FRAME":"TEME","GP_ID":"233355827","SEMIMAJOR_AXIS":"6925.338","OBJECT_NAME":"STARLINK-1802","FILE":"3926571","ELEMENT_SET_NO":"999","PERIAPSIS":"546.283","MEAN_MOTION":"15.06403334","OBJECT_TYPE":"PAYLOAD","MEAN_MOTION_DOT":"-0.00002370","COUNTRY_CODE":"US"}];
